STARLINK-2484           
1 48141U 21027BB  23255.47910134  .00015452  00000+0  10534-2 0  9997
2 48141  53.0538 293.2236 0001436  98.6310 261.4842 15.06419679135398
STARLINK-2485           
1 48142U 21027BC  23255.35193742  .00009600  00000+0  66228-3 0  9993
2 48142  53.0536 273.7929 0001390  95.0343 265.0804 15.06410607135643
STARLINK-2486           
1 48143U 21027BD  23255.58335648 -.00020770  00000+0 -13804-2 0  9996
2 48143  53.0538 227.8447 0001401  89.9563 133.2931 15.06376663135909
STARLINK-2487           
1 48144U 21027BE  23255.35930947  .00005990  00000+0  42059-3 0  9995
2 48144  53.0524 273.7576 0001461  98.0207 262.0948 15.06408452135631
STARLINK-2488           
1 48145U 21027BF  23255.36299712  .00013089  00000+0  89564-3 0  9995
2 48145  53.0527 273.7466 0001392  97.5775 262.5372 15.06413858135643
STARLINK-2489           
1 48146U 21027BG  23255.42750764  .00013675  00000+0  93433-3 0  9993
2 48146  53.0540 293.4625 0001721  92.4843 267.6343 15.06434322135374
STARLINK-2490           
1 48147U 21027BH  23255.35884934  .00017341  00000+0  11798-2 0  9990
2 48147  53.0538 298.7671 0001508  95.2123 264.9038 15.06411447135291
STARLINK-2491           
1 48148U 21027BJ  23255.52701746  .00016607  00000+0  11305-2 0  9997
2 48148  53.0546 293.0067 0001724  95.8280 264.2906 15.06421373135373
STARLINK-2492           
1 48149U 21027BK  23255.47357199  .00011636  00000+0  79839-3 0  9995
2 48149  53.0536 273.2467 0001519  93.9790 266.1372 15.06416345135656
STARLINK-2493           
1 48150U 21027BL  23255.41091102  .00005792  00000+0  40734-3 0  9998
2 48150  53.0548 273.5320 0001743  99.1027 261.0159 15.06409247135652
STARLINK-2503           
1 48151U 21027BM  23255.28190626  .00007506  00000+0  52214-3 0  9996
2 48151  53.0525 274.1104 0001505  92.8599 267.2563 15.06406991135633
STARLINK-2567           
1 48276U 21036A   23255.19023014  .00024572  00000+0  16616-2 0  9997
2 48276  53.0548 169.5203 0001371  70.6819 289.4319 15.06426641131728
STARLINK-2569           
1 48277U 21036B   23254.85987347  .00020139  00000+0  13666-2 0  9995
2 48277  53.0542 136.0031 0001287 111.8569 248.2557 15.06412298132166
STARLINK-2543           
1 48278U 21036C   23255.09624205  .00027860  00000+0  18798-2 0  9993
2 48278  53.0527 150.0235 0001268 109.8582 250.2544 15.06440174131985
STARLINK-2580           
1 48279U 21036D   23255.08885389  .00029055  00000+0  19597-2 0  9991
2 48279  53.0532 149.9771 0001352 113.6442 246.4689 15.06433153131982
STARLINK-2565           
1 48280U 21036E   23255.28144056  .00021010  00000+0  14243-2 0  9990
2 48280  53.0535 219.1108 0001518 117.5875 242.5269 15.06423136131035
STARLINK-2520           
1 48281U 21036F   23255.16164500  .00000005  00000+0  19244-4 0  9993
2 48281  53.0542 199.6448 0001361  78.0086 282.1056 15.06412431131292
STARLINK-2558           
1 48282U 21036G   23255.25150176  .00020797  00000+0  14095-2 0  9995
2 48282  53.0534 204.2444 0001297  87.5179 272.5958 15.06437809131244
STARLINK-2516           
1 48283U 21036H   23255.31415999  .00020367  00000+0  13813-2 0  9990
2 48283  53.0534 203.9650 0001613  82.5776 277.5396 15.06424984131252
STARLINK-2564           
1 48284U 21036J   23255.24413058  .00017964  00000+0  12213-2 0  9999
2 48284  53.0531 204.2754 0001006  87.5792 272.5312 15.06415910131238
STARLINK-2548           
1 48285U 21036K   23255.23950038  .00017874  00000+0  12149-2 0  9991
2 48285  53.0526 204.2859 0001166  82.2771 277.8350 15.06426955131236
STARLINK-2547           
1 48286U 21036L   23255.58335648  .00010070  00000+0  66493-3 0  9997
2 48286  53.0531 202.7208 0001091  81.5851  18.1214 15.07989520131869
STARLINK-2566           
1 48287U 21036M   23255.29940986  .00020143  00000+0  13660-2 0  9992
2 48287  53.0537 204.0280 0001285 114.3225 245.7898 15.06435817131248
STARLINK-2562           
1 48288U 21036N   23255.58335648  .00007316  00000+0  51009-3 0  9995
2 48288  53.0529 202.8302 0001488  86.4801 354.2515 15.06360378131864
STARLINK-2545           
1 48289U 21036P   23255.29204613  .00019441  00000+0  13195-2 0  9996
2 48289  53.0542 204.0634 0001415  76.1054 284.0092 15.06427174131248
STARLINK-2540           
1 48290U 21036Q   23255.28835802  .00023074  00000+0  15616-2 0  9994
2 48290  53.0534 204.0808 0001450  78.2805 281.8347 15.06429664131244
STARLINK-2555           
1 48291U 21036R   23255.28467434  .00017553  00000+0  11935-2 0  9992
2 48291  53.0542 204.0971 0001509  74.2755 285.8400 15.06426056131246
STARLINK-2542           
1 48292U 21036S   23255.22940966  .00018622  00000+0  12646-2 0  9991
2 48292  53.0541 204.5072 0001298  81.3179 278.7957 15.06434061131239
STARLINK-2550           
1 48293U 21036T   23255.27730284  .00017177  00000+0  11685-2 0  9993
2 48293  53.0537 204.1299 0001450  76.5119 283.6031 15.06423282131244
STARLINK-2533           
1 48294U 21036U   23255.27362050  .00026443  00000+0  17860-2 0  9993
2 48294  53.0540 204.1471 0001423  79.7428 280.3721 15.06430204131241
STARLINK-2535           
1 48295U 21036V   23255.13724216  .00026640  00000+0  17994-2 0  9992
2 48295  53.0530 204.7594 0001500  82.3768 277.7392 15.06425025131223
STARLINK-2546           
1 48296U 21036W   23255.26624658  .00005633  00000+0  39663-3 0  9993
2 48296  53.0541 204.1788 0001341  86.8473 273.2669 15.06410227131248
STARLINK-2544           
1 48297U 21036X   23255.26255856  .00021745  00000+0  14733-2 0  9996
2 48297  53.0536 204.1946 0001425  77.9722 282.1427 15.06422374131247
STARLINK-2559           
1 48298U 21036Y   23255.25886690  .00022422  00000+0  15181-2 0  9993
2 48298  53.0535 204.2103 0001293 116.4143 243.6979 15.06431604131242
STARLINK-2557           
1 48299U 21036Z   23255.25517231  .00023324  00000+0  15781-2 0  9994
2 48299  53.0529 204.2270 0001220  83.5527 276.5601 15.06434736131247
STARLINK-2538           
1 48300U 21036AA  23255.31323265  .00022983  00000+0  15554-2 0  9994
2 48300  53.0536 213.9671 0001526 106.5475 253.5682 15.06433057131112
STARLINK-2537           
1 48301U 21036AB  23255.24320082  .00020282  00000+0  13756-2 0  9993
2 48301  53.0529 214.2839 0001511 107.1465 252.9689 15.06425874131090
STARLINK-2556           
1 48302U 21036AC  23255.30585893  .00023510  00000+0  15905-2 0  9999
2 48302  53.0533 214.0023 0001411 107.5582 252.5561 15.06433109131109
STARLINK-2530           
1 48303U 21036AD  23255.30123028  .00017869  00000+0  12146-2 0  9992
2 48303  53.0534 214.0116 0001500 101.3968 258.7190 15.06427335131103
STARLINK-2524           
1 48304U 21036AE  23255.29850121  .00022297  00000+0  15101-2 0  9997
2 48304  53.0540 214.0346 0001506  81.1819 278.9341 15.06423791131106
STARLINK-2519           
1 48305U 21036AF  23255.29386492  .00024457  00000+0  16538-2 0  9998
2 48305  53.0530 214.0459 0001374  85.1631 274.9515 15.06428308131108
STARLINK-2523           
1 48306U 21036AG  23255.29112751  .00021020  00000+0  14245-2 0  9990
2 48306  53.0534 214.0665 0001211 100.8111 259.3014 15.06434258131102
STARLINK-2528           
1 48307U 21036AH  23255.28743610  .00020008  00000+0  13574-2 0  9993
2 48307  53.0530 214.0844 0001443  81.4404 278.6748 15.06423854131102
STARLINK-2532           
1 48308U 21036AJ  23255.15107667  .00021808  00000+0  14785-2 0  9990
2 48308  53.0531 214.6969 0001551  78.4718 281.6445 15.06398008131089
STARLINK-2517           
1 48309U 21036AK  23255.41275129  .00019333  00000+0  13123-2 0  9994
2 48309  53.0531 213.5205 0001362  83.8542 276.2602 15.06426362131121
STARLINK-2536           
1 48310U 21036AL  23255.40906762  .00018346  00000+0  12466-2 0  9991
2 48310  53.0523 213.5376 0001385 115.5354 244.5779 15.06422412131127
STARLINK-2534           
1 48311U 21036AM  23255.40538846  .00020863  00000+0  14146-2 0  9990
2 48311  53.0540 213.5550 0001358  88.5053 271.6091 15.06420326131126
STARLINK-2061           
1 48312U 21036AN  23255.33535561  .00018088  00000+0  12296-2 0  9994
2 48312  53.0530 213.8701 0001183  81.9992 278.1131 15.06413787131111
STARLINK-2541           
1 48313U 21036AP  23255.33166067  .00000964  00000+0  83601-4 0  9990
2 48313  53.0548 213.8865 0001515  94.0766 266.0396 15.06406312131109
STARLINK-2549           
1 48314U 21036AQ  23255.32797707  .00018315  00000+0  12443-2 0  9994
2 48314  53.0540 213.9014 0001259 113.3574 246.7548 15.06428129131100
STARLINK-2506           
1 48315U 21036AR  23255.32334524  .00016770  00000+0  11415-2 0  9990
2 48315  53.0535 213.9114 0001339 110.8442 249.2690 15.06416794131102
STARLINK-2507           
1 48316U 21036AS  23255.25426022  .00018581  00000+0  12620-2 0  9999
2 48316  53.0533 214.2334 0001443 111.4724 248.6419 15.06430336131093
STARLINK-2513           
1 48317U 21036AT  23255.25058131  .00018833  00000+0  12792-2 0  9992
2 48317  53.0534 214.2493 0001513  78.1461 281.9698 15.06418535131092
STARLINK-2509           
1 48318U 21036AU  23255.44132331  .00014060  00000+0  96062-3 0  9990
2 48318  53.0529 223.3927 0001441  80.8651 279.2501 15.06410090130989
STARLINK-2512           
1 48319U 21036AV  23255.43667636  .00032230  00000+0  21695-2 0  9999
2 48319  53.0523 223.4048 0001141 100.2197 259.8920 15.06455588130988
STARLINK-2029           
1 48320U 21036AW  23255.43395240  .00016498  00000+0  11233-2 0  9995
2 48320  53.0532 223.4259 0001263  83.7167 276.3966 15.06418408130985
STARLINK-2457           
1 48321U 21036AX  23255.29757477  .00019386  00000+0  13163-2 0  9997
2 48321  53.0536 224.0389 0001451  82.5539 277.5614 15.06412997130968
STARLINK-2477           
1 48322U 21036AY  23255.29390300  .00017885  00000+0  12166-2 0  9990
2 48322  53.0531 224.0545 0001351  81.2184 278.8958 15.06398592130968
STARLINK-2515           
1 48323U 21036AZ  23255.29020283  .00013695  00000+0  93627-3 0  9998
2 48323  53.0535 224.0716 0001373  89.1920 270.9227 15.06408117130969
